SL-14 R/B               
1 16792U 86046B   25337.01466645  .00000692  00000+0  77086-4 0  9999
2 16792  82.4813 171.4985 0022977 183.9780 176.1258 14.85467904112058
SL-14 R/B               
1 16882U 86055B   25337.16594345  .00000696  00000+0  77670-4 0  9997
2 16882  82.5212 217.3680 0017603 293.8276 223.6405 14.85515357105033
AJISAI (EGS)            
1 16908U 86061A   25337.17994369 -.00000094  00000+0  22618-4 0  9999
2 16908  50.0113  30.1127 0011263  41.9296 357.9973 12.44514130455983
COSMOS 1812             
1 17295U 87003A   25336.94162955  .00109214  00000+0  79026-3 0  9995
2 17295  82.4867 302.6039 0007059  98.5108 261.6956 15.73083739129111
SL-14 R/B               
1 17567U 87024B   25337.08312402  .00000651  00000+0  71540-4 0  9999
2 17567  82.5281 183.5257 0017299 217.2171 142.7848 14.86008329 73784
COSMOS 1833             
1 17589U 87027A   25336.94859720  .00000050  00000+0  52497-4 0  9992
2 17589  70.9127 169.3603 0022120 345.4932  14.5551 14.13018470996647
SL-16 R/B               
1 17590U 87027B   25336.84994907  .00000023  00000+0  35345-4 0  9993
2 17590  71.0020 120.5569 0007506 270.1286  89.8978 14.17151995  1627
SL-14 R/B               
1 17912U 87038B   25337.16322584  .00000652  00000+0  72896-4 0  9995
2 17912  82.5025  27.7205 0020620 121.5313 238.7921 14.85246844 64900
COSMOS 1844             
1 17973U 87041A   25337.15676233 -.00000149  00000+0 -52176-4 0  9990
2 17973  70.8989 237.7828 0030421 172.3423 187.8170 14.14527659989933
SL-14 R/B               
1 18153U 87055B   25337.02207252  .00000738  00000+0  82506-4 0  9995
2 18153  82.4999  80.1458 0020041 337.0679  22.9640 14.85504270 55581
COSMOS 1867             
1 18187U 87060A   25337.10157472  .00000010  00000+0  41380-4 0  9993
2 18187  65.0098 217.1931 0013630 270.1588  89.7935 14.31483565  6112
COSMOS 1892             
1 18421U 87088A   25336.62888916  .10264805 -12447-5  19810-3 0  9996
2 18421  82.4523  54.8042 0008542 257.3802 102.6546 16.46888756 89719
