CCSDS_OMM_VERS = 2.0
CREATION_DATE  = 
ORIGINATOR     = 

OBJECT_NAME    = SL-14 R/B
OBJECT_ID      = 1986-046B
CENTER_NAME    = EARTH
REF_FRAME      = TEME
TIME_SYSTEM    = UTC
MEAN_ELEMENT_THEORY = SGP/SGP4

EPOCH          = 2025-12-03T00:21:07.181280
MEAN_MOTION    = 14.85467904
ECCENTRICITY   = .0022977
INCLINATION    = 82.4813
RA_OF_ASC_NODE = 171.4985
ARG_OF_PERICENTER = 183.9780
MEAN_ANOMALY   = 176.1258

EPHEMERIS_TYPE = 0
CLASSIFICATION_TYPE = U
NORAD_CAT_ID   = 16792
ELEMENT_SET_NO = 999
REV_AT_EPOCH   = 11205
BSTAR          = .77086E-4
MEAN_MOTION_DOT = .692E-5
MEAN_MOTION_DDOT = 0

CCSDS_OMM_VERS = 2.0
CREATION_DATE  = 
ORIGINATOR     = 

OBJECT_NAME    = SL-14 R/B
OBJECT_ID      = 1986-055B
CENTER_NAME    = EARTH
REF_FRAME      = TEME
TIME_SYSTEM    = UTC
MEAN_ELEMENT_THEORY = SGP/SGP4

EPOCH          = 2025-12-03T03:58:57.514080
MEAN_MOTION    = 14.85515357
ECCENTRICITY   = .0017603
INCLINATION    = 82.5212
RA_OF_ASC_NODE = 217.3680
ARG_OF_PERICENTER = 293.8276
MEAN_ANOMALY   = 223.6405

EPHEMERIS_TYPE = 0
CLASSIFICATION_TYPE = U
NORAD_CAT_ID   = 16882
ELEMENT_SET_NO = 999
REV_AT_EPOCH   = 10503
BSTAR          = .7767E-4
MEAN_MOTION_DOT = .696E-5
MEAN_MOTION_DDOT = 0

CCSDS_OMM_VERS = 2.0
CREATION_DATE  = 
ORIGINATOR     = 

OBJECT_NAME    = AJISAI (EGS)
OBJECT_ID      = 1986-061A
CENTER_NAME    = EARTH
REF_FRAME      = TEME
TIME_SYSTEM    = UTC
MEAN_ELEMENT_THEORY = SGP/SGP4

EPOCH          = 2025-12-03T04:19:07.134816
MEAN_MOTION    = 12.44514130
ECCENTRICITY   = .0011263
INCLINATION    = 50.0113
RA_OF_ASC_NODE = 30.1127
ARG_OF_PERICENTER = 41.9296
MEAN_ANOMALY   = 357.9973

EPHEMERIS_TYPE = 0
CLASSIFICATION_TYPE = U
NORAD_CAT_ID   = 16908
ELEMENT_SET_NO = 999
REV_AT_EPOCH   = 45598
BSTAR          = .22618E-4
MEAN_MOTION_DOT = -.94E-6
MEAN_MOTION_DDOT = 0

CCSDS_OMM_VERS = 2.0
CREATION_DATE  = 
ORIGINATOR     = 

OBJECT_NAME    = COSMOS 1812
OBJECT_ID      = 1987-003A
CENTER_NAME    = EARTH
REF_FRAME      = TEME
TIME_SYSTEM    = UTC
MEAN_ELEMENT_THEORY = SGP/SGP4

EPOCH          = 2025-12-02T22:35:56.793120
MEAN_MOTION    = 15.73083739
ECCENTRICITY   = .0007059
INCLINATION    = 82.4867
RA_OF_ASC_NODE = 302.6039
ARG_OF_PERICENTER = 98.5108
MEAN_ANOMALY   = 261.6956

EPHEMERIS_TYPE = 0
CLASSIFICATION_TYPE = U
NORAD_CAT_ID   = 17295
ELEMENT_SET_NO = 999
REV_AT_EPOCH   = 12911
BSTAR          = .79026E-3
MEAN_MOTION_DOT = .109214E-2
MEAN_MOTION_DDOT = 0

CCSDS_OMM_VERS = 2.0
CREATION_DATE  = 
ORIGINATOR     = 

OBJECT_NAME    = SL-14 R/B
OBJECT_ID      = 1987-024B
CENTER_NAME    = EARTH
REF_FRAME      = TEME
TIME_SYSTEM    = UTC
MEAN_ELEMENT_THEORY = SGP/SGP4

EPOCH          = 2025-12-03T01:59:41.915328
MEAN_MOTION    = 14.86008329
ECCENTRICITY   = .0017299
INCLINATION    = 82.5281
RA_OF_ASC_NODE = 183.5257
ARG_OF_PERICENTER = 217.2171
MEAN_ANOMALY   = 142.7848

EPHEMERIS_TYPE = 0
CLASSIFICATION_TYPE = U
NORAD_CAT_ID   = 17567
ELEMENT_SET_NO = 999
REV_AT_EPOCH   = 7378
BSTAR          = .7154E-4
MEAN_MOTION_DOT = .651E-5
MEAN_MOTION_DDOT = 0

CCSDS_OMM_VERS = 2.0
CREATION_DATE  = 
ORIGINATOR     = 

OBJECT_NAME    = COSMOS 1833
OBJECT_ID      = 1987-027A
CENTER_NAME    = EARTH
REF_FRAME      = TEME
TIME_SYSTEM    = UTC
MEAN_ELEMENT_THEORY = SGP/SGP4

EPOCH          = 2025-12-02T22:45:58.798080
MEAN_MOTION    = 14.13018470
ECCENTRICITY   = .002212
INCLINATION    = 70.9127
RA_OF_ASC_NODE = 169.3603
ARG_OF_PERICENTER = 345.4932
MEAN_ANOMALY   = 14.5551

EPHEMERIS_TYPE = 0
CLASSIFICATION_TYPE = U
NORAD_CAT_ID   = 17589
ELEMENT_SET_NO = 999
REV_AT_EPOCH   = 99664
BSTAR          = .52497E-4
MEAN_MOTION_DOT = .5E-6
MEAN_MOTION_DDOT = 0

CCSDS_OMM_VERS = 2.0
CREATION_DATE  = 
ORIGINATOR     = 

OBJECT_NAME    = SL-16 R/B
OBJECT_ID      = 1987-027B
CENTER_NAME    = EARTH
REF_FRAME      = TEME
TIME_SYSTEM    = UTC
MEAN_ELEMENT_THEORY = SGP/SGP4

EPOCH          = 2025-12-02T20:23:55.599648
MEAN_MOTION    = 14.17151995
ECCENTRICITY   = .0007506
INCLINATION    = 71.0020
RA_OF_ASC_NODE = 120.5569
ARG_OF_PERICENTER = 270.1286
MEAN_ANOMALY   = 89.8978

EPHEMERIS_TYPE = 0
CLASSIFICATION_TYPE = U
NORAD_CAT_ID   = 17590
ELEMENT_SET_NO = 999
REV_AT_EPOCH   = 162
BSTAR          = .35345E-4
MEAN_MOTION_DOT = .23E-6
MEAN_MOTION_DDOT = 0

CCSDS_OMM_VERS = 2.0
CREATION_DATE  = 
ORIGINATOR     = 

OBJECT_NAME    = SL-14 R/B
OBJECT_ID      = 1987-038B
CENTER_NAME    = EARTH
REF_FRAME      = TEME
TIME_SYSTEM    = UTC
MEAN_ELEMENT_THEORY = SGP/SGP4

EPOCH          = 2025-12-03T03:55:02.712576
MEAN_MOTION    = 14.85246844
ECCENTRICITY   = .002062
INCLINATION    = 82.5025
RA_OF_ASC_NODE = 27.7205
ARG_OF_PERICENTER = 121.5313
MEAN_ANOMALY   = 238.7921

EPHEMERIS_TYPE = 0
CLASSIFICATION_TYPE = U
NORAD_CAT_ID   = 17912
ELEMENT_SET_NO = 999
REV_AT_EPOCH   = 6490
BSTAR          = .72896E-4
MEAN_MOTION_DOT = .652E-5
MEAN_MOTION_DDOT = 0

CCSDS_OMM_VERS = 2.0
CREATION_DATE  = 
ORIGINATOR     = 

OBJECT_NAME    = COSMOS 1844
OBJECT_ID      = 1987-041A
CENTER_NAME    = EARTH
REF_FRAME      = TEME
TIME_SYSTEM    = UTC
MEAN_ELEMENT_THEORY = SGP/SGP4

EPOCH          = 2025-12-03T03:45:44.265312
MEAN_MOTION    = 14.14527659
ECCENTRICITY   = .0030421
INCLINATION    = 70.8989
RA_OF_ASC_NODE = 237.7828
ARG_OF_PERICENTER = 172.3423
MEAN_ANOMALY   = 187.8170

EPHEMERIS_TYPE = 0
CLASSIFICATION_TYPE = U
NORAD_CAT_ID   = 17973
ELEMENT_SET_NO = 999
REV_AT_EPOCH   = 98993
BSTAR          = -.52176E-4
MEAN_MOTION_DOT = -.149E-5
MEAN_MOTION_DDOT = 0

CCSDS_OMM_VERS = 2.0
CREATION_DATE  = 
ORIGINATOR     = 

OBJECT_NAME    = SL-14 R/B
OBJECT_ID      = 1987-055B
CENTER_NAME    = EARTH
REF_FRAME      = TEME
TIME_SYSTEM    = UTC
MEAN_ELEMENT_THEORY = SGP/SGP4

EPOCH          = 2025-12-03T00:31:47.065728
MEAN_MOTION    = 14.85504270
ECCENTRICITY   = .0020041
INCLINATION    = 82.4999
RA_OF_ASC_NODE = 80.1458
ARG_OF_PERICENTER = 337.0679
MEAN_ANOMALY   = 22.9640

EPHEMERIS_TYPE = 0
CLASSIFICATION_TYPE = U
NORAD_CAT_ID   = 18153
ELEMENT_SET_NO = 999
REV_AT_EPOCH   = 5558
BSTAR          = .82506E-4
MEAN_MOTION_DOT = .738E-5
MEAN_MOTION_DDOT = 0

CCSDS_OMM_VERS = 2.0
CREATION_DATE  = 
ORIGINATOR     = 

OBJECT_NAME    = COSMOS 1867
OBJECT_ID      = 1987-060A
CENTER_NAME    = EARTH
REF_FRAME      = TEME
TIME_SYSTEM    = UTC
MEAN_ELEMENT_THEORY = SGP/SGP4

EPOCH          = 2025-12-03T02:26:16.055808
MEAN_MOTION    = 14.31483565
ECCENTRICITY   = .001363
INCLINATION    = 65.0098
RA_OF_ASC_NODE = 217.1931
ARG_OF_PERICENTER = 270.1588
MEAN_ANOMALY   = 89.7935

EPHEMERIS_TYPE = 0
CLASSIFICATION_TYPE = U
NORAD_CAT_ID   = 18187
ELEMENT_SET_NO = 999
REV_AT_EPOCH   = 611
BSTAR          = .4138E-4
MEAN_MOTION_DOT = .1E-6
MEAN_MOTION_DDOT = 0

CCSDS_OMM_VERS = 2.0
CREATION_DATE  = 
ORIGINATOR     = 

OBJECT_NAME    = COSMOS 1892
OBJECT_ID      = 1987-088A
CENTER_NAME    = EARTH
REF_FRAME      = TEME
TIME_SYSTEM    = UTC
MEAN_ELEMENT_THEORY = SGP/SGP4

EPOCH          = 2025-12-02T15:05:36.023424
MEAN_MOTION    = 16.46888756
ECCENTRICITY   = .00085428
INCLINATION    = 82.4523
RA_OF_ASC_NODE = 54.8042
ARG_OF_PERICENTER = 257.3802
MEAN_ANOMALY   = 102.6546

EPHEMERIS_TYPE = 0
CLASSIFICATION_TYPE = U
NORAD_CAT_ID   = 18421
ELEMENT_SET_NO = 999
REV_AT_EPOCH   = 8971
BSTAR          = .19809517E-3
MEAN_MOTION_DOT = .10264805E+0
MEAN_MOTION_DDOT = -.1244715E-5

